[
  {
    "id": 1,
    "name_en": "Gyeongbokgung Palace",
    "name_ko": "경복궁",
    "description": "Гёнджоккун — главный дворец Кореи, построенный в 1395 году. Это крупнейший и самый важный из пяти королевских дворцов династии Чосон. Он находится в Сеуле и служил главной резиденцией корейских монархов, а также является символом корейской культуры и истории. Дворец включает в себя великолепные павильоны и сады, а также традиционную корейскую архитектуру. Не пропустите церемонию смены караула, которая проводится ежедневно в 10:00 и 14:00.",
    "position": {
      "lat": 37.5796,
      "lng": 126.9794
    },
    "insta": "https://www.instagram.com/explore/tags/gyeongbokgung/",
    "namuWiki": "https://namu.wiki/w/%EA%B2%BD%EB%B3%B5%EA%B6%81",
    "ctgr": "sight"
  },
  {
    "id": 2,
    "name_en": "Changdeokgung Palace",
    "name_ko": "창덕궁",
    "description": "Чхандоккун — один из королевских дворцов династии Чосон, расположенный в Сеуле. Построен в 1405 году, известен своими красивыми садами и традиционной корейской архитектурой. Особое внимание стоит уделить Секретному саду (Biwon), который является основным достоянием дворца.",
    "position": {
      "lat": 37.5786,
      "lng": 126.9911
    },
    "insta": "https://www.instagram.com/explore/tags/changdeokgung/",
    "namuWiki": "https://namu.wiki/w/%EC%B0%BD%EB%8D%95%EA%B6%81",
    "ctgr": "sight"
  },
  {
    "id": 3,
    "name_en": "Namsan Seoul Tower",
    "name_ko": "N서울타워",
    "description": "Башня Намсан в Сеуле — одна из самых известных достопримечательностей города. Башня предлагает потрясающий вид на Сеул и его окрестности. Здесь также можно найти рестораны, магазины и смотровые площадки.",
    "position": {
      "lat": 37.5512,
      "lng": 126.9882
    },
    "insta": "https://www.instagram.com/explore/tags/namsanseoultower/",
    "namuWiki": "https://namu.wiki/w/%EB%82%A8%EC%82%B0%EC%84%9C%EC%9A%B8%ED%83%80%EC%9B%8C",
    "ctgr": "sight"
  },
  {
    "id": 4,
    "name_en": "Bukchon Hanok Village",
    "name_ko": "북촌한옥마을",
    "description": "Букчон Ханок Вилладж — традиционная корейская деревня в Сеуле, сохранившаяся с эпохи династии Чосон. Здесь можно увидеть традиционные корейские дома (ханоки) и насладиться атмосферой старого Сеула.",
    "position": {
      "lat": 37.5828,
      "lng": 126.9830
    },
    "insta": "https://www.instagram.com/explore/tags/bukchonhanokvillage/",
    "namuWiki": "https://namu.wiki/w/%EB%B6%81%EC%B4%9D%ED%95%9C%EC%98%A5%EB%A7%88%EC%9D%84",
    "ctgr": "sight"
  },
  {
    "id": 5,
    "name_en": "Gwangjang Market",
    "name_ko": "광장시장",
    "description": "Гванжанг Сиджан — один из старейших традиционных рынков в Сеуле, известный своей уличной едой и разнообразием корейских закусок. Здесь можно попробовать множество традиционных блюд, таких как блинчики с начинкой (jeon) и кисломолочные продукты.",
    "position": {
      "lat": 37.5728,
      "lng": 127.0105
    },
    "insta": "https://www.instagram.com/explore/tags/gwangjangmarket/",
    "namuWiki": "https://namu.wiki/w/%EA%B4%91%EC%9E%A5%EC%8B%9C%EC%9E%A5",
    "ctgr": "sight"
  },
  {
    "id": 6,
    "name_en": "Jogyesa Temple",
    "name_ko": "조계사",
    "description": "Джогеоса — главный храм буддистской школы Чогё в Сеуле. Храм является важным культурным и религиозным центром и известен своими красивыми садами и традиционной архитектурой.",
    "position": {
      "lat": 37.5821,
      "lng": 126.9919
    },
    "insta": "https://www.instagram.com/explore/tags/jogyesa/",
    "namuWiki": "https://namu.wiki/w/%EC%A1%B0%EA%B3%84%EC%82%AC",
    "ctgr": "sight"
  },
  {
    "id": 7,
    "name_en": "Cheonggyecheon Stream",
    "name_ko": "청계천",
    "description": "Чхонгечхон — искусственный ручей в центре Сеула, который был восстановлен и стал популярным местом для прогулок и отдыха. Ручей протекает через центр города и окружён зелёными зонами и мостами.",
    "position": {
      "lat": 37.5718,
      "lng": 126.9778
    },
    "insta": "https://www.instagram.com/explore/tags/cheonggyecheon/",
    "namuWiki": "https://namu.wiki/w/%EC%B2%AD%EA%B3%84%EC%B2%9C",
    "ctgr": "sight"
  },
  {
    "id": 8,
    "name_en": "Namiseom Island",
    "name_ko": "남이섬",
    "description": "Остров Нами — популярное туристическое место, расположенное в реке Чхонгчхон, недалеко от Сеула. Остров известен своими живописными пейзажами, зелёными аллеями и культурными мероприятиями.",
    "position": {
      "lat": 37.7595,
      "lng": 127.4708
    },
    "insta": "https://www.instagram.com/explore/tags/namiseom/",
    "namuWiki": "https://namu.wiki/w/%EB%82%A8%EC%9D%B4%EC%84%B1",
    "ctgr": "sight"
  },
  {
    "id": 9,
    "name_en": "Hwaseong Fortress",
    "name_ko": "화성",
    "description": "Фортификация Хвасонг — историческая крепость, построенная в 18 веке в Сувоне. Крепость является объектом Всемирного наследия ЮНЕСКО и известна своей уникальной архитектурой и историческим значением.",
    "position": {
      "lat": 37.2835,
      "lng": 127.0286
    },
    "insta": "https://www.instagram.com/explore/tags/hwaseongfortress/",
    "namuWiki": "https://namu.wiki/w/%ED%99%94%EC%84%B1",
    "ctgr": "sight"
  },
  {
    "id": 10,
    "name_en": "Seoraksan National Park",
    "name_ko": "설악산국립공원",
    "description": "Национальный парк Сораксан — один из самых живописных парков Южной Кореи, известный своими горами, лесами и горными потоками. Парк популярен среди туристов благодаря своим пейзажам и возможностям для походов.",
    "position": {
      "lat": 38.1415,
      "lng": 128.5122
    },
    "insta": "https://www.instagram.com/explore/tags/seoraksan/",
    "namuWiki": "https://namu.wiki/w/%EC%84%A4%EC%95%85%EC%82%B0",
    "ctgr": "sight"
  },
  {
    "id": 11,
    "name_en": "Bukhansan National Park",
    "name_ko": "북한산국립공원",
    "description": "Национальный парк Пукхансан — ещё одно живописное место, расположенное в окрестностях Сеула. Парк предлагает множество троп и маршрутов для походов, а также красивые виды на окружающие горы и город.",
    "position": {
      "lat": 37.6583,
      "lng": 127.0287
    },
    "insta": "https://www.instagram.com/explore/tags/bukhansannationalpark/",
    "namuWiki": "https://namu.wiki/w/%EB%B6%81%ED%95%9C%EC%82%B0",
    "ctgr": "sight"
  },
  {
    "id": 12,
    "name_en": "Jongmyo Shrine",
    "name_ko": "종묘",
    "description": "Джонмё — королевское святилище, посвящённое предкам династии Чосон. Оно расположено в Сеуле и известно своими традиционными ритуалами и сохранением исторических артефактов.",
    "position": {
      "lat": 37.5724,
      "lng": 126.9958
    },
    "insta": "https://www.instagram.com/explore/tags/jongmyoshrine/",
    "namuWiki": "https://namu.wiki/w/%EC%A2%85%EB%AA%A8",
    "ctgr": "sight"
  },
  {
    "id": 13,
    "name_en": "Insa-dong",
    "name_ko": "인사동",
    "description": "Инсадонг — район в Сеуле, известный своими традиционными корейскими магазинами, галереями и ресторанами. Это отличное место для покупки сувениров и знакомства с корейской культурой.",
    "position": {
      "lat": 37.5734,
      "lng": 126.9846
    },
    "insta": "https://www.instagram.com/explore/tags/insadong/",
    "namuWiki": "https://namu.wiki/w/%EC%9D%B8%EC%82%AC%EB%8F%99",
    "ctgr": "sight"
  },

  {
    "id": 14,
    "name_en": "Gwangjang Market",
    "name_ko": "광장시장",
    "description": "Гванчжанский рынок — один из самых старых рынков в Сеуле, известный своими традиционными корейскими блюдами, такими как бибимбап и ттокбоки.",
    "position": {
      "lat": 37.5707,
      "lng": 126.9901
    },
    "insta": "https://www.instagram.com/explore/tags/gwangjangmarket/",
    "namuWiki": "https://namu.wiki/w/%EA%B4%91%EC%9E%A5%EC%8B%9C%EC%9E%A5",
    "ctgr": "caffe"
  },
  {
    "id": 15,
    "name_en": "Myeongdong Street Food",
    "name_ko": "명동 거리 음식",
    "description": "Мёндон — популярный район в Сеуле, известный своими уличными едой, где можно попробовать корейские закуски и десерты.",
    "position": {
      "lat": 37.5637,
      "lng": 126.9853
    },
    "insta": "https://www.instagram.com/explore/tags/myeongdongstreetfood/",
    "namuWiki": "https://namu.wiki/w/%EB%AA%85%EB%8F%99%EA%B5%AC%EB%A6%AC%EC%9D%8C%EC%8B%9D",
    "ctgr": "caffe"
  },
  {
    "id": 16,
    "name_en": "Insadong Street Food",
    "name_ko": "인사동 거리 음식",
    "description": "Инсадонг — известный район для традиционной корейской уличной еды. Попробуйте тут разнообразные корейские блюда и сладости.",
    "position": {
      "lat": 37.5734,
      "lng": 126.9846
    },
    "insta": "https://www.instagram.com/explore/tags/insadongstreetfood/",
    "namuWiki": "https://namu.wiki/w/%EC%9D%B8%EC%82%AC%EB%8F%99%EA%B5%AC%EB%A6%AC%EC%9D%8C%EC%8B%9D",
    "ctgr": "caffe"
  },
  {
    "id": 17,
    "name_en": "Hongdae Food Street",
    "name_ko": "홍대 음식 거리",
    "description": "Хондэ — район в Сеуле, известный своими модными кафе и ресторанами. Это отличное место для поиска разнообразной еды и напитков.",
    "position": {
      "lat": 37.5536,
      "lng": 126.9258
    },
    "insta": "https://www.instagram.com/explore/tags/hongdaefoodstreet/",
    "namuWiki": "https://namu.wiki/w/%ED%99%8D%EB%8C%80%EC%9D%8C%EC%8B%9D%EA%B5%AC%EB%A6%AC",
    "ctgr": "caffe"
  },
  {
    "id": 18,
    "name_en": "Bukchon Hanok Village",
    "name_ko": "북촌 한옥 마을",
    "description": "Букчон Ханок Вилладж — район, где можно найти традиционные корейские рестораны, предлагающие блюда корейской кухни в историческом окружении.",
    "position": {
      "lat": 37.5821,
      "lng": 126.9838
    },
    "insta": "https://www.instagram.com/explore/tags/bukchonhanokvillage/",
    "namuWiki": "https://namu.wiki/w/%EB%B6%81%EC%B4%8C%20%ED%95%9C%EC%98%A5%EB%B0%98%EC%9D%91",
    "ctgr": "caffe"
  },
  {
    "id": 19,
    "name_en": "Dongdaemun Food Alley",
    "name_ko": "동대문 음식 거리",
    "description": "Донгдэмун — район в Сеуле, известный своими рынками и уличной едой. Здесь можно найти множество мест для перекуса и традиционных блюд.",
    "position": {
      "lat": 37.5734,
      "lng": 127.0077
    },
    "insta": "https://www.instagram.com/explore/tags/dongdaemunfoodalley/",
    "namuWiki": "https://namu.wiki/w/%EB%8F%99%EB%8C%80%EB%AC%B8%EC%9D%8C%EC%8B%9D%EA%B5%AC%EB%A6%AC",
    "ctgr": "caffe"
  },
  {
    "id": 20,
    "name_en": "Gangnam Food Street",
    "name_ko": "강남 음식 거리",
    "description": "Гангнам — известный район в Сеуле, где можно найти множество ресторанов и кафе с разнообразной корейской и международной кухней.",
    "position": {
      "lat": 37.5014,
      "lng": 127.0392
    },
    "insta": "https://www.instagram.com/explore/tags/gangnamfoodstreet/",
    "namuWiki": "https://namu.wiki/w/%EA%B0%95%EB%82%A8%20%EC%9D%8C%EC%8B%9D%EA%B5%AC%EB%A6%AC",
    "ctgr": "caffe"
  },
  {
    "id": 21,
    "name_en": "Apgujeong Rodeo Street",
    "name_ko": "압구정 로데오 거리",
    "description": "Апгуджонг — район в Гангнаме, известный своими модными ресторанами и кафе. Здесь можно попробовать как корейские, так и международные блюда.",
    "position": {
      "lat": 37.5261,
      "lng": 127.0294
    },
    "insta": "https://www.instagram.com/explore/tags/apgujeongrodeo/",
    "namuWiki": "https://namu.wiki/w/%EC%95%95%EA%B5%AC%EC%A0%95%20%EB%A1%9C%EB%8D%B0%EC%98%A4%20%EA%B5%AC%EB%A6%AC",
    "ctgr": "caffe"
  },
  {
    "id": 22,
    "name_en": "Samcheong-dong",
    "name_ko": "삼청동",
    "description": "Самчхонг-донг — район в Сеуле, известный своими уютными кафе и ресторанами, предлагающими традиционные корейские блюда и напитки.",
    "position": {
      "lat": 37.5822,
      "lng": 126.9812
    },
    "insta": "https://www.instagram.com/explore/tags/samcheongdong/",
    "namuWiki": "https://namu.wiki/w/%EC%82%BC%EC%B2%AD%EB%8F%99",
    "ctgr": "caffe"
  },
  {
    "id": 23,
    "name_en": "Cheongdam Food Street",
    "name_ko": "청담 음식 거리",
    "description": "Чхондам — модный район в Сеуле, где можно найти высококлассные рестораны и кафе с разнообразной кухней.",
    "position": {
      "lat": 37.5184,
      "lng": 127.0481
    },
    "insta": "https://www.instagram.com/explore/tags/cheongdamfoodstreet/",
    "namuWiki": "https://namu.wiki/w/%EC%B2%AD%EB%8B%B4%20%EC%9D%8C%EC%8B%9D%EA%B5%AC%EB%A6%AC",
    "ctgr": "caffe"
  }
]

